KINEIS-2D               
1 62930U 25028C   26197.61484345  .00000765  00000+0  11898-3 0  9994
2 62930  97.9272 249.4930 0004771 106.7062 253.4672 14.75771369 77058
KINEIS-2E               
1 62931U 25028D   26197.15147769  .00000666  00000+0  10140-3 0  9999
2 62931  97.8941 248.1671 0002124  94.1162 266.0291 14.77088819 77050
KINEIS-2A               
1 62932U 25028E   26197.63591434  .00000635  00000+0  10575-3 0  9993
2 62932  98.1287 253.0679 0005961  80.3646 279.8235 14.73452754 76943
KINEIS-2B               
1 62934U 25028G   26197.61329293  .00000598  00000+0  99711-4 0  9993
2 62934  97.9654 249.9400 0004795  70.7549 289.4178 14.73453193 76991
KINEIS-4E               
1 63300U 25056A   26197.81267998  .00000692  00000+0  11716-3 0  9990
2 63300  97.9070 320.8908 0002945  83.4226 276.7316 14.72305419 71489
KINEIS-4C               
1 63301U 25056B   26197.82503642  .00000714  00000+0  12055-3 0  9993
2 63301  97.9123 321.1529 0002916 205.7178 154.3885 14.72327296 71495
KINEIS-4D               
1 63302U 25056C   26197.82810421  .00000733  00000+0  12351-3 0  9990
2 63302  97.9052 321.1279 0001644 210.8424 149.2688 14.72319066 71497
KINEIS-4A               
1 63303U 25056D   26197.79558679  .00000393  00000+0  69901-4 0  9997
2 63303  97.9138 321.0489 0002224 149.8658 210.2678 14.72286163 71488
KINEIS-4B               
1 63304U 25056E   26197.84624309  .00000699  00000+0  11818-3 0  9990
2 63304  97.9150 321.1560 0005436 187.4060 172.7068 14.72331071 71481
