{"fetched_at":"2026-07-17T06:38:23.348Z","source":"https://celestrak.org/NORAD/elements/gp.php?NAME=KINEIS&FORMAT=JSON","constellation":"kineis","records":[{"OBJECT_NAME":"KINEIS-2D","OBJECT_ID":"2025-028C","EPOCH":"2026-07-16T14:45:22.474080","CLASSIFICATION_TYPE":"U","MEAN_MOTION":14.75771369,"ECCENTRICITY":0.0004771,"INCLINATION":97.9272,"RA_OF_ASC_NODE":249.493,"ARG_OF_PERICENTER":106.7062,"MEAN_ANOMALY":253.4672,"EPHEMERIS_TYPE":0,"NORAD_CAT_ID":62930,"ELEMENT_SET_NO":999,"REV_AT_EPOCH":7705,"BSTAR":0.00011898,"MEAN_MOTION_DOT":0.00000765,"MEAN_MOTION_DDOT":0},{"OBJECT_NAME":"KINEIS-2E","OBJECT_ID":"2025-028D","EPOCH":"2026-07-16T03:38:07.672416","CLASSIFICATION_TYPE":"U","MEAN_MOTION":14.77088819,"ECCENTRICITY":0.0002124,"INCLINATION":97.8941,"RA_OF_ASC_NODE":248.1671,"ARG_OF_PERICENTER":94.1162,"MEAN_ANOMALY":266.0291,"EPHEMERIS_TYPE":0,"NORAD_CAT_ID":62931,"ELEMENT_SET_NO":999,"REV_AT_EPOCH":7705,"BSTAR":0.0001014,"MEAN_MOTION_DOT":0.00000666,"MEAN_MOTION_DDOT":0},{"OBJECT_NAME":"KINEIS-2A","OBJECT_ID":"2025-028E","EPOCH":"2026-07-16T15:15:42.998976","CLASSIFICATION_TYPE":"U","MEAN_MOTION":14.73452754,"ECCENTRICITY":0.0005961,"INCLINATION":98.1287,"RA_OF_ASC_NODE":253.0679,"ARG_OF_PERICENTER":80.3646,"MEAN_ANOMALY":279.8235,"EPHEMERIS_TYPE":0,"NORAD_CAT_ID":62932,"ELEMENT_SET_NO":999,"REV_AT_EPOCH":7694,"BSTAR":0.00010575,"MEAN_MOTION_DOT":0.00000635,"MEAN_MOTION_DDOT":0},{"OBJECT_NAME":"KINEIS-2B","OBJECT_ID":"2025-028G","EPOCH":"2026-07-16T14:43:08.509152","CLASSIFICATION_TYPE":"U","MEAN_MOTION":14.73453193,"ECCENTRICITY":0.0004795,"INCLINATION":97.9654,"RA_OF_ASC_NODE":249.94,"ARG_OF_PERICENTER":70.7549,"MEAN_ANOMALY":289.4178,"EPHEMERIS_TYPE":0,"NORAD_CAT_ID":62934,"ELEMENT_SET_NO":999,"REV_AT_EPOCH":7699,"BSTAR":0.000099711,"MEAN_MOTION_DOT":0.00000598,"MEAN_MOTION_DDOT":0},{"OBJECT_NAME":"KINEIS-4E","OBJECT_ID":"2025-056A","EPOCH":"2026-07-16T19:30:15.550272","CLASSIFICATION_TYPE":"U","MEAN_MOTION":14.72305419,"ECCENTRICITY":0.0002945,"INCLINATION":97.907,"RA_OF_ASC_NODE":320.8908,"ARG_OF_PERICENTER":83.4226,"MEAN_ANOMALY":276.7316,"EPHEMERIS_TYPE":0,"NORAD_CAT_ID":63300,"ELEMENT_SET_NO":999,"REV_AT_EPOCH":7148,"BSTAR":0.00011716,"MEAN_MOTION_DOT":0.00000692,"MEAN_MOTION_DDOT":0},{"OBJECT_NAME":"KINEIS-4C","OBJECT_ID":"2025-056B","EPOCH":"2026-07-16T19:48:03.146688","CLASSIFICATION_TYPE":"U","MEAN_MOTION":14.72327296,"ECCENTRICITY":0.0002916,"INCLINATION":97.9123,"RA_OF_ASC_NODE":321.1529,"ARG_OF_PERICENTER":205.7178,"MEAN_ANOMALY":154.3885,"EPHEMERIS_TYPE":0,"NORAD_CAT_ID":63301,"ELEMENT_SET_NO":999,"REV_AT_EPOCH":7149,"BSTAR":0.00012055,"MEAN_MOTION_DOT":0.00000714,"MEAN_MOTION_DDOT":0},{"OBJECT_NAME":"KINEIS-4D","OBJECT_ID":"2025-056C","EPOCH":"2026-07-16T19:52:28.203744","CLASSIFICATION_TYPE":"U","MEAN_MOTION":14.72319066,"ECCENTRICITY":0.0001644,"INCLINATION":97.9052,"RA_OF_ASC_NODE":321.1279,"ARG_OF_PERICENTER":210.8424,"MEAN_ANOMALY":149.2688,"EPHEMERIS_TYPE":0,"NORAD_CAT_ID":63302,"ELEMENT_SET_NO":999,"REV_AT_EPOCH":7149,"BSTAR":0.00012351,"MEAN_MOTION_DOT":0.00000733,"MEAN_MOTION_DDOT":0},{"OBJECT_NAME":"KINEIS-4A","OBJECT_ID":"2025-056D","EPOCH":"2026-07-16T19:05:38.698656","CLASSIFICATION_TYPE":"U","MEAN_MOTION":14.72286163,"ECCENTRICITY":0.0002224,"INCLINATION":97.9138,"RA_OF_ASC_NODE":321.0489,"ARG_OF_PERICENTER":149.8658,"MEAN_ANOMALY":210.2678,"EPHEMERIS_TYPE":0,"NORAD_CAT_ID":63303,"ELEMENT_SET_NO":999,"REV_AT_EPOCH":7148,"BSTAR":0.000069901,"MEAN_MOTION_DOT":0.00000393,"MEAN_MOTION_DDOT":0},{"OBJECT_NAME":"KINEIS-4B","OBJECT_ID":"2025-056E","EPOCH":"2026-07-16T20:18:35.402976","CLASSIFICATION_TYPE":"U","MEAN_MOTION":14.72331071,"ECCENTRICITY":0.0005436,"INCLINATION":97.915,"RA_OF_ASC_NODE":321.156,"ARG_OF_PERICENTER":187.406,"MEAN_ANOMALY":172.7068,"EPHEMERIS_TYPE":0,"NORAD_CAT_ID":63304,"ELEMENT_SET_NO":999,"REV_AT_EPOCH":7148,"BSTAR":0.00011818,"MEAN_MOTION_DOT":0.00000699,"MEAN_MOTION_DDOT":0}]}
